H1 CPF  1  DGF 2022 08 09 11  7211 larets     NONE      
H2   304206 5557    27944 2022 08 09 00 00 00 2022 08 16 00 00 00    30 1 1  0 0 0
H5  0.0650
H9
10 0 59801   7200.000000  0      -6930212.166       -456361.229       1250935.113
10 0 59801   7230.000000  0      -6969734.591       -410832.461       1030734.253
10 0 59801   7260.000000  0      -7001969.225       -364728.917        809477.491
10 0 59801   7290.000000  0      -7026882.161       -318129.501        587391.615
10 0 59801   7320.000000  0      -7044447.385       -271113.737        364704.196
10 0 59801   7350.000000  0      -7054646.797       -223761.655        141643.340
10 0 59801   7380.000000  0      -7057470.233       -176153.674        -81562.550
10 0 59801   7410.000000  0      -7052915.468       -128370.480       -304685.023
10 0 59801   7440.000000  0      -7040988.209        -80492.910       -527495.817
10 0 59801   7470.000000  0      -7021702.085        -32601.831       -749767.105
10 0 59801   7500.000000  0      -6995078.620         15221.975       -971271.733
10 0 59801   7530.000000  0      -6961147.200         62897.929      -1191783.455
10 0 59801   7560.000000  0      -6919945.036        110345.777      -1411077.170
10 0 59801   7590.000000  0      -6871517.114        157485.699      -1628929.152
10 0 59801   7620.000000  0      -6815916.142        204238.431      -1845117.287
10 0 59801   7650.000000  0      -6753202.486        250525.376      -2059421.303
10 0 59801   7680.000000  0      -6683444.096        296268.720      -2271623.005
10 0 59801   7710.000000  0      -6606716.418        341391.545      -2481506.499
10 0 59801   7740.000000  0      -6523102.303        385817.938      -2688858.422
10 0 59801   7770.000000  0      -6432691.897        429473.102      -2893468.157
10 0 59801   7800.000000  0      -6335582.532        472283.465      -3095128.049
10 0 59801   7830.000000  0      -6231878.609        514176.782      -3293633.614
10 0 59801   7860.000000  0      -6121691.469        555082.245      -3488783.740
10 0 59801   7890.000000  0      -6005139.263        594930.576      -3680380.894
10 0 59801   7920.000000  0      -5882346.812        633654.130      -3868231.314
10 0 59801   7950.000000  0      -5753445.465        671186.990      -4052145.203
10 0 59801   7980.000000  0      -5618572.938        707465.061      -4231936.919
10 0 59801   8010.000000  0      -5477873.161        742426.159      -4407425.153
10 0 59801   8040.000000  0      -5331496.107        776010.103      -4578433.107
10 0 59801   8070.000000  0      -5179597.619        808158.793      -4744788.664
10 0 59801   8100.000000  0      -5022339.236        838816.295      -4906324.549
10 0 59801   8130.000000  0      -4859888.011        867928.920      -5062878.492
10 0 59801   8160.000000  0      -4692416.322        895445.301      -5214293.378
10 0 59801   8190.000000  0      -4520101.684        921316.461      -5360417.398
10 0 59801   8220.000000  0      -4343126.549        945495.883      -5501104.187
10 0 59801   8250.000000  0      -4161678.106        967939.574      -5636212.963
10 0 59801   8280.000000  0      -3975948.079        988606.128      -5765608.655
10 0 59801   8310.000000  0      -3786132.517       1007456.781      -5889162.028
10 0 59801   8340.000000  0      -3592431.577       1024455.465      -6006749.797
10 0 59801   8370.000000  0      -3395049.315       1039568.859      -6118254.735
10 0 59801   8400.000000  0      -3194193.468       1052766.433      -6223565.781
10 0 59801   8430.000000  0      -2990075.240       1064020.495      -6322578.137
10 0 59801   8460.000000  0      -2782909.074       1073306.230      -6415193.363
10 0 59801   8490.000000  0      -2572912.427       1080601.738      -6501319.472
10 0 59801   8520.000000  0      -2360305.540       1085888.065      -6580871.003
10 0 59801   8550.000000  0      -2145311.205       1089149.232      -6653769.093
10 0 59801   8580.000000  0      -1928154.539       1090372.259      -6719941.545
10 0 59801   8610.000000  0      -1709062.749       1089547.185      -6779322.885
10 0 59801   8640.000000  0      -1488264.903       1086667.085      -6831854.423
10 0 59801   8670.000000  0      -1265991.694       1081728.080      -6877484.297
10 0 59801   8700.000000  0      -1042475.205       1074729.350      -6916167.521
10 0 59801   8730.000000  0       -817948.672       1065673.137      -6947866.014
10 0 59801   8760.000000  0       -592646.253       1054564.748      -6972548.640
10 0 59801   8790.000000  0       -366802.790       1041412.551      -6990191.226
10 0 59801   8820.000000  0       -140653.579       1026227.973      -7000776.587
10 0 59801   8850.000000  0         85565.873       1009025.483      -7004294.546
10 0 59801   8880.000000  0        311620.079        989822.587      -7000741.942
10 0 59801   8910.000000  0        537273.822        968639.803      -6990122.640
10 0 59801   8940.000000  0        762292.389        945500.642      -6972447.518
10 0 59801   8970.000000  0        986441.813        920431.585      -6947734.462
10 0 59801   9000.000000  0       1209489.110        893462.050      -6916008.338
10 0 59801   9030.000000  0       1431202.506        864624.363      -6877300.975
10 0 59801   9060.000000  0       1651351.676        833953.717      -6831651.133
10 0 59801   9090.000000  0       1869707.970        801488.132      -6779104.472
10 0 59801   9120.000000  0       2086044.654        767268.415      -6719713.513
10 0 59801   9150.000000  0       2300137.134        731338.111      -6653537.587
10 0 59801   9180.000000  0       2511763.189        693743.453      -6580642.783
10 0 59801   9210.000000  0       2720703.197        654533.309      -6501101.886
10 0 59801   9240.000000  0       2926740.356        613759.121      -6414994.308
10 0 59801   9270.000000  0       3129660.902        571474.843      -6322406.021
10 0 59801   9300.000000  0       3329254.328        527736.876      -6223429.482
10 0 59801   9330.000000  0       3525313.602        482603.999      -6118163.547
10 0 59801   9360.000000  0       3717635.380        436137.298      -6006713.388
10 0 59801   9390.000000  0       3906020.217        388400.086      -5889190.388
10 0 59801   9420.000000  0       4090272.768        339457.835      -5765712.051
10 0 59801   9450.000000  0       4270201.997        289378.085      -5636401.891
10 0 59801   9480.000000  0       4445621.375        238230.369      -5501389.326
10 0 59801   9510.000000  0       4616349.086        186086.121      -5360809.554
10 0 59801   9540.000000  0       4782208.214        133018.584      -5214803.433
10 0 59801   9570.000000  0       4943026.935         79102.720      -5063517.339
10 0 59801   9600.000000  0       5098638.696         24415.111      -4907103.040
10 0 59801   9630.000000  0       5248882.396        -30966.135      -4745717.545
10 0 59801   9660.000000  0       5393602.557        -86961.492      -4579522.961
10 0 59801   9690.000000  0       5532649.494       -143490.112      -4408686.339
10 0 59801   9720.000000  0       5665879.477       -200469.935      -4233379.512
10 0 59801   9750.000000  0       5793154.890       -257817.797      -4053778.935
10 0 59801   9780.000000  0       5914344.376       -315449.537      -3870065.512
10 0 59801   9810.000000  0       6029322.989       -373280.109      -3682424.426
10 0 59801   9840.000000  0       6137972.332       -431223.701      -3491044.957
10 0 59801   9870.000000  0       6240180.687       -489193.846      -3296120.298
10 0 59801   9900.000000  0       6335843.147       -547103.543      -3097847.365
10 0 59801   9930.000000  0       6424861.731       -604865.373      -2896426.604
10 0 59801   9960.000000  0       6507145.496       -662391.616      -2692061.784
10 0 59801   9990.000000  0       6582610.644       -719594.379      -2484959.801
10 0 59801  10020.000000  0       6651180.612       -776385.707      -2275330.467
10 0 59801  10050.000000  0       6712786.165       -832677.713      -2063386.297
10 0 59801  10080.000000  0       6767365.474       -888382.695      -1849342.299
10 0 59801  10110.000000  0       6814864.190       -943413.263      -1633415.751
10 0 59801  10140.000000  0       6855235.507       -997682.457      -1415825.982
10 0 59801  10170.000000  0       6888440.216      -1051103.877      -1196794.148
10 0 59801  10200.000000  0       6914446.754      -1103591.798       -976543.001
10 0 59801  10230.000000  0       6933231.241      -1155061.297       -755296.669
10 0 59801  10260.000000  0       6944777.512      -1205428.374       -533280.419
10 0 59801  10290.000000  0       6949077.141      -1254610.075       -310720.422
10 0 59801  10320.000000  0       6946129.450      -1302524.606        -87843.522
10 0 59801  10350.000000  0       6935941.514      -1349091.463        135123.007
10 0 59801  10380.000000  0       6918528.156      -1394231.539        357951.698
10 0 59801  10410.000000  0       6893911.922      -1437867.247        580415.128
10 0 59801  10440.000000  0       6862123.065      -1479922.633        802286.151
10 0 59801  10470.000000  0       6823199.508      -1520323.488       1023338.140
10 0 59801  10500.000000  0       6777186.806      -1558997.464       1243345.219
10 0 59801  10530.000000  0       6724138.100      -1595874.181       1462082.509
10 0 59801  10560.000000  0       6664114.054      -1630885.335       1679326.365
10 0 59801  10590.000000  0       6597182.781      -1663964.797       1894854.612
10 0 59801  10620.000000  0       6523419.768      -1695048.719       2108446.781
10 0 59801  10650.000000  0       6442907.789      -1724075.626       2319884.338
10 0 59801  10680.000000  0       6355736.806      -1750986.514       2528950.914
10 0 59801  10710.000000  0       6262003.872      -1775724.944       2735432.530
10 0 59801  10740.000000  0       6161813.017      -1798237.130       2939117.825
10 0 59801  10770.000000  0       6055275.129      -1818472.026       3139798.277
99
